STARLINK-1563
1 26078C 20055BD  21325.18157774 -.00019555  00000-0 -13101-2 0  3258
2 26078  53.0546 302.4223 0001926  56.7527   4.7966 15.06420567    15
